H1 CPF 01  gfz 2021 07 13 12  6942 terrasarx 
H2 0702601  6201 31698    2021 07 13 12 59 42 2021 07 18 00 00 42   120 1 1  0 0 0
H9
10 0 59410  72702.000000  0    5737444.539  -3394524.590  -1747632.053
10 0 59410  72822.000000  0    5789561.916  -3636444.628   -859775.920
10 0 59410  72942.000000  0    5736894.208  -3814853.093     43200.849
10 0 59410  73062.000000  0    5581457.805  -3924778.468    945416.373
10 0 59410  73182.000000  0    5327161.929  -3962508.391   1830986.621
10 0 59410  73302.000000  0    4979717.517  -3925689.183   2684315.210
10 0 59410  73422.000000  0    4546509.769  -3813397.091   3490375.619
10 0 59410  73542.000000  0    4036439.467  -3626180.508   4234981.754
10 0 59410  73662.000000  0    3459735.957  -3366072.734   4905042.153
10 0 59410  73782.000000  0    2827744.780  -3036573.245   5488791.299
10 0 59410  73902.000000  0    2152698.969  -2642598.945   5975993.959
10 0 59410  74022.000000  0    1447476.814  -2190407.503   6358120.293
10 0 59410  74142.000000  0     725352.538  -1687494.804   6628488.975
10 0 59410  74262.000000  0       -255.440  -1142467.880   6782377.941
10 0 59410  74382.000000  0    -716033.887   -564895.722   6817101.453
10 0 59410  74502.000000  0   -1409017.889     34859.161   6732053.355
10 0 59410  74622.000000  0   -2066824.655    645826.219   6528717.050
10 0 59410  74742.000000  0   -2677874.185   1256626.736   6210641.379
10 0 59410  74862.000000  0   -3231593.762   1855684.707   5783382.763
10 0 59410  74982.000000  0   -3718603.434   2431445.881   5254414.666
10 0 59410  75102.000000  0   -4130879.645   2972602.113   4633003.253
10 0 59410  75222.000000  0   -4461892.992   3468315.725   3930050.216
10 0 59410  75342.000000  0   -4706717.921   3908439.232   3157904.989
10 0 59410  75462.000000  0   -4862110.476   4283726.341   2330148.814
10 0 59410  75582.000000  0   -4926552.957   4586030.133   1461354.516
10 0 59410  75702.000000  0   -4900263.253   4808481.547    566824.330
10 0 59410  75822.000000  0   -4785169.208   4945642.529   -337686.573
10 0 59410  75942.000000  0   -4584849.346   4993632.777  -1236256.146
10 0 59410  76062.000000  0   -4304437.583   4950224.976  -2113086.483
10 0 59410  76182.000000  0   -3950497.222   4814905.322  -2952789.016
10 0 59410  76302.000000  0   -3530868.158   4588898.438  -3740660.725
10 0 59410  76422.000000  0   -3054490.107   4275156.775  -4462942.528
10 0 59410  76542.000000  0   -2531208.778   3878316.438  -5107055.738
10 0 59410  76662.000000  0   -1971570.492   3404622.493  -5661813.814
10 0 59410  76782.000000  0   -1386608.479   2861824.248  -6117608.578
10 0 59410  76902.000000  0    -787624.988   2259041.913  -6466566.311
10 0 59410  77022.000000  0    -185974.715   1606609.609  -6702671.714
10 0 59410  77142.000000  0     407146.227    915897.717  -6821861.088
10 0 59410  77262.000000  0     980903.340    199117.442  -6822085.510
10 0 59410  77382.000000  0    1525017.860   -530891.178  -6703342.585
10 0 59410  77502.000000  0    2029946.152  -1260884.112  -6467674.871
10 0 59410  77622.000000  0    2487043.458  -1977447.200  -6119138.752
10 0 59410  77742.000000  0    2888710.484  -2667236.567  -5663742.403
10 0 59410  77862.000000  0    3228521.115  -3317224.587  -5109354.448
10 0 59410  77982.000000  0    3501328.705  -3914947.226  -4465577.774
10 0 59410  78102.000000  0    3703346.305  -4448743.973  -3743592.594
10 0 59410  78222.000000  0    3832202.350  -4907988.937  -2955972.767
10 0 59410  78342.000000  0    3886970.525  -5283309.459  -2116474.093
10 0 59410  78462.000000  0    3868169.782  -5566785.247  -1239795.831
10 0 59410  78582.000000  0    3777735.374  -5752121.381   -341321.908
10 0 59410  78702.000000  0    3618960.444  -5834791.885    563154.496
10 0 59410  78822.000000  0    3396409.286  -5812148.908   1457715.574
10 0 59410  78942.000000  0    3115805.307  -5683494.747   2326608.885
10 0 59410  79062.000000  0    2783894.048  -5450112.417   3154533.769
10 0 59410  79182.000000  0    2408286.788  -5115257.395   3926917.102
10 0 59410  79302.000000  0    1997289.664  -4684110.061   4630174.565
10 0 59410  79422.000000  0    1559721.224  -4163689.458   5251951.888
10 0 59410  79542.000000  0    1104724.123  -3562731.453   5781341.606
10 0 59410  79662.000000  0     641573.116  -2891533.123   6209071.449
10 0 59410  79782.000000  0     179485.832  -2161769.116   6527659.839
10 0 59410  79902.000000  0    -272559.596  -1386284.172   6731539.643
10 0 59410  80022.000000  0    -705997.506   -578865.356   6817150.546
10 0 59410  80142.000000  0   -1112835.802    246004.538   6782997.994
10 0 59410  80262.000000  0   -1485802.722   1073406.713   6629677.327
10 0 59410  80382.000000  0   -1818476.372   1888255.354   6359863.764
10 0 59410  80502.000000  0   -2105395.831   2675571.885   5978268.812
10 0 59410  80622.000000  0   -2342151.514   3420760.876   5491562.794
10 0 59410  80742.000000  0   -2525453.743   4109882.672   4908264.859
10 0 59410  80862.000000  0   -2653179.191   4729919.361   4238600.490
10 0 59410  80982.000000  0   -2724392.858   5269027.854   3494326.754
10 0 59410  81102.000000  0   -2739345.089   5716774.388   2688527.532
10 0 59410  81222.000000  0   -2699443.464   6064344.201   1835382.642
10 0 59410  81342.000000  0   -2607200.501   6304722.264    949915.017
10 0 59410  81462.000000  0   -2466157.535   6432840.210     47720.358
10 0 59410  81582.000000  0   -2280787.227   6445685.570   -855315.456
10 0 59410  81702.000000  0   -2056377.254   6342370.539  -1743306.277
10 0 59410  81822.000000  0   -1798896.177   6124154.424  -2600656.686
10 0 59410  81942.000000  0   -1514846.330   5794420.812  -3412340.758
10 0 59410  82062.000000  0   -1211109.685   5358616.084  -4164166.755
10 0 59410  82182.000000  0    -894789.504   4824147.726  -4843024.326
10 0 59410  82302.000000  0    -573051.474   4200247.102  -5437107.695
10 0 59410  82422.000000  0    -252967.622   3497800.419  -5936113.988
10 0 59410  82542.000000  0      58633.808   2729149.885  -6331412.676
10 0 59410  82662.000000  0     355308.466   1907870.942  -6616182.770
10 0 59410  82782.000000  0     631123.767   1048532.118  -6785519.706
10 0 59410  82902.000000  0     880773.272    166438.630  -6836511.446
10 0 59410  83022.000000  0    1099675.320   -722635.657  -6768282.906
10 0 59410  83142.000000  0    1284054.422  -1602724.234  -6582007.878
10 0 59410  83262.000000  0    1431004.746  -2457946.434  -6280890.381
10 0 59410  83382.000000  0    1538535.938  -3272787.089  -5870117.014
10 0 59410  83502.000000  0    1605599.247  -4032376.042  -5356778.326
10 0 59410  83622.000000  0    1632093.610  -4722760.642  -4749756.020
10 0 59410  83742.000000  0    1618852.484  -5331164.297  -4059580.082
10 0 59410  83862.000000  0    1567610.366  -5846230.671  -3298257.200
10 0 59410  83982.000000  0    1480948.788  -6258246.061  -2479069.190
10 0 59410  84102.000000  0    1362224.368  -6559334.033  -1616345.261
10 0 59410  84222.000000  0    1215479.605  -6743617.724   -725211.675
10 0 59410  84342.000000  0    1045336.901  -6807345.271    178677.064
10 0 59410  84462.000000  0     856880.731  -6748973.123   1079419.600
10 0 59410  84582.000000  0     655528.965  -6569206.292   1961155.561
10 0 59410  84702.000000  0     446897.982  -6270993.023   2808355.041
10 0 59410  84822.000000  0     236663.757  -5859472.108   3606101.349
10 0 59410  84942.000000  0      30422.482  -5341876.445   4340358.692
10 0 59410  85062.000000  0    -166444.482  -4727397.584   4998221.984
10 0 59410  85182.000000  0    -348898.520  -4027012.264   5568144.090
10 0 59410  85302.000000  0    -512361.162  -3253276.640   6040136.630
10 0 59410  85422.000000  0    -652819.099  -2420091.142   6405940.188
10 0 59410  85542.000000  0    -766914.520  -1542444.906   6659160.715
10 0 59410  85662.000000  0    -852019.165   -636144.187   6795375.546
10 0 59410  85782.000000  0    -906291.337    282473.715   6812207.102
10 0 59410  85902.000000  0    -928714.292   1196835.181   6709361.791
10 0 59410  86022.000000  0    -919114.696   2090428.765   6488634.612
10 0 59410  86142.000000  0    -878161.798   2947102.757   6153879.734
10 0 59410  86262.000000  0    -807347.657   3751357.739   5710947.620
10 0 59410  86382.000000  0    -708948.244   4488629.747   5167587.945
10 0 59411    102.000000  0    -585966.124   5145558.729   4533320.628
10 0 59411    222.000000  0    -442056.009   5710239.363   3819273.810
10 0 59411    342.000000  0    -281433.655   6172443.735   3037991.966
10 0 59411    462.000000  0    -108772.549   6523819.372   2203219.229
10 0 59411    582.000000  0      70912.870   6758051.512   1329651.772
10 0 59411    702.000000  0     252393.756   6870982.554    432673.632
10 0 59411    822.000000  0     430358.762   6860690.815   -471921.254
10 0 59411    942.000000  0     599548.934   6727524.002  -1368216.558
10 0 59411   1062.000000  0     754890.024   6474085.584  -2240462.265
10 0 59411   1182.000000  0     891619.891   6105177.108  -3073357.885
10 0 59411   1302.000000  0    1005408.980   5627697.755  -3852325.030
10 0 59411   1422.000000  0    1092470.417   5050503.761  -4563763.877
10 0 59411   1542.000000  0    1149657.084   4384231.576  -5195287.995
10 0 59411   1662.000000  0    1174543.527   3641090.420  -5735933.164
10 0 59411   1782.000000  0    1165490.672   2834629.984  -6176338.881
10 0 59411   1902.000000  0    1121692.709   1979486.903  -6508899.343
10 0 59411   2022.000000  0    1043205.343   1091117.932  -6727882.627
10 0 59411   2142.000000  0     930955.259    185522.961  -6829520.476
10 0 59411   2262.000000  0     786730.893   -721038.827  -6812066.033
10 0 59411   2382.000000  0     613153.996  -1612334.697  -6675819.260
10 0 59411   2502.000000  0     413633.417  -2472440.428  -6423121.308
10 0 59411   2622.000000  0     192301.293  -3286017.946  -6058320.983
10 0 59411   2742.000000  0     -46068.670  -4038586.802  -5587708.085
99
